[{"OBJECT_NAME":"OBJECT C","OBJECT_ID":"2023-003C","EPOCH":"2026-03-09T22:53:37.568256","MEAN_MOTION":15.5121963,"ECCENTRICITY":0.00046458,"INCLINATION":97.1598,"RA_OF_ASC_NODE":145.7069,"ARG_OF_PERICENTER":126.2552,"MEAN_ANOMALY":233.9131,"EPHEMERIS_TYPE":0,"CLASSIFICATION_TYPE":"U","NORAD_CAT_ID":55135,"ELEMENT_SET_NO":999,"REV_AT_EPOCH":17687,"BSTAR":0.00045849142,"MEAN_MOTION_DOT":0.00026795,"MEAN_MOTION_DDOT":0},{"OBJECT_NAME":"OUTPOST MISSION 2","OBJECT_ID":"2023-174CG","EPOCH":"2026-03-09T22:51:56.861280","MEAN_MOTION":15.50733673,"ECCENTRICITY":0.00069991,"INCLINATION":97.3967,"RA_OF_ASC_NODE":158.6721,"ARG_OF_PERICENTER":123.0505,"MEAN_ANOMALY":237.142,"EPHEMERIS_TYPE":0,"CLASSIFICATION_TYPE":"U","NORAD_CAT_ID":58334,"ELEMENT_SET_NO":999,"REV_AT_EPOCH":13041,"BSTAR":0.00067138638,"MEAN_MOTION_DOT":0.00038683,"MEAN_MOTION_DDOT":0}]
